{"type": "FeatureCollection", "features": [ {"type": "Feature", "properties": {"norad_id": 33939, "name": "COSMOS 2251 DEB", "group": "cosmos-2251-debris", "lat": -58.5044715771462, "lon": -84.80317328475795, "alt_km": 575.1393530924179, "timestamp": "2025-12-19T06:59:44.299814+00:00", "meta": {"OBJECT_NAME": "COSMOS 2251 DEB", "OBJECT_ID": "1993-036EU", "EPOCH": "2025-12-18T15:30:55.278432", "MEAN_MOTION": 15.00303194, "ECCENTRICITY": 0.0004259, "INCLINATION": 74.0073, "RA_OF_ASC_NODE": 68.5988, "ARG_OF_PERICENTER": 32.4564, "MEAN_ANOMALY": 327.6884, "EPHEMERIS_TYPE": 0, "CLASSIFICATION_TYPE": "U", "NORAD_CAT_ID": 33939, "ELEMENT_SET_NO": 999, "REV_AT_EPOCH": 88841, "BSTAR": 0.002185317, "MEAN_MOTION_DOT": 0.00027474, "MEAN_MOTION_DDOT": 0}, "tle": {"line1": "1 33939U 93036EU  25352.64647313  .00027474  00000+0  21853-2 0  9993", "line2": "2 33939  74.0073  68.5988 0004259  32.4564 327.6884 15.00303194888411"}}, "geometry": {"type": "Point", "coordinates": [-84.80317328475795, -58.5044715771462]}}, {"type": "Feature", "properties": {"norad_id": 33940, "name": "COSMOS 2251 DEB", "group": "cosmos-2251-debris", "lat": 56.976609955651305, "lon": -75.10245670675651, "alt_km": 691.3031175007873, "timestamp": "2025-12-19T06:59:44.299825+00:00", "meta": {"OBJECT_NAME": "COSMOS 2251 DEB", "OBJECT_ID": "1993-036EV", "EPOCH": "2025-12-18T21:18:46.626624", "MEAN_MOTION": 14.58850851, "ECCENTRICITY": 0.00110242, "INCLINATION": 74.0389, "RA_OF_ASC_NODE": 131.7895, "ARG_OF_PERICENTER": 211.9708, "MEAN_ANOMALY": 309.4273, "EPHEMERIS_TYPE": 0, "CLASSIFICATION_TYPE": "U", "NORAD_CAT_ID": 33940, "ELEMENT_SET_NO": 999, "REV_AT_EPOCH": 88683, "BSTAR": 0.00083184238, "MEAN_MOTION_DOT": 3.869e-05, "MEAN_MOTION_DDOT": 0}, "tle": {"line1": "1 33940U 93036EV  25352.88803966  .00003869  00000+0  83184-3 0  9997", "line2": "2 33940  74.0389 131.7895 0011024 211.9708 309.4273 14.58850851886838"}}, "geometry": {"type": "Point", "coordinates": [-75.10245670675651, 56.976609955651305]}}, {"type": "Feature", "properties": {"norad_id": 33942, "name": "COSMOS 2251 DEB", "group": "cosmos-2251-debris", "lat": -5.530481511644444, "lon": 84.35121508477287, "alt_km": 782.1572078924528, "timestamp": "2025-12-19T06:59:44.299834+00:00", "meta": {"OBJECT_NAME": "COSMOS 2251 DEB", "OBJECT_ID": "1993-036EX", "EPOCH": "2025-12-18T22:10:21.785664", "MEAN_MOTION": 14.37997342, "ECCENTRICITY": 0.00205744, "INCLINATION": 74.0365, "RA_OF_ASC_NODE": 263.4398, "ARG_OF_PERICENTER": 345.5209, "MEAN_ANOMALY": 97.8668, "EPHEMERIS_TYPE": 0, "CLASSIFICATION_TYPE": "U", "NORAD_CAT_ID": 33942, "ELEMENT_SET_NO": 999, "REV_AT_EPOCH": 88223, "BSTAR": 0.0001750263, "MEAN_MOTION_DOT": 5.04e-06, "MEAN_MOTION_DDOT": 0}, "tle": {"line1": "1 33942U 93036EX  25352.92386326  .00000504  00000+0  17503-3 0  9995", "line2": "2 33942  74.0365 263.4398 0020574 345.5209  97.8668 14.37997342882235"}}, "geometry": {"type": "Point", "coordinates": [84.35121508477287, -5.530481511644444]}}, {"type": "Feature", "properties": {"norad_id": 33944, "name": "COSMOS 2251 DEB", "group": "cosmos-2251-debris", "lat": 43.00691553289804, "lon": -47.64664402825969, "alt_km": 684.2755466844474, "timestamp": "2025-12-19T06:59:44.299845+00:00", "meta": {"OBJECT_NAME": "COSMOS 2251 DEB", "OBJECT_ID": "1993-036EZ", "EPOCH": "2025-12-18T22:42:58.609152", "MEAN_MOTION": 14.37356757, "ECCENTRICITY": 0.01124392, "INCLINATION": 74.0406, "RA_OF_ASC_NODE": 297.5069, "ARG_OF_PERICENTER": 35.5157, "MEAN_ANOMALY": 25.1794, "EPHEMERIS_TYPE": 0, "CLASSIFICATION_TYPE": "U", "NORAD_CAT_ID": 33944, "ELEMENT_SET_NO": 999, "REV_AT_EPOCH": 88117, "BSTAR": 0.00027911886, "MEAN_MOTION_DOT": 8.69e-06, "MEAN_MOTION_DDOT": 0}, "tle": {"line1": "1 33944U 93036EZ  25352.94651168  .00000869  00000+0  27912-3 0  9997", "line2": "2 33944  74.0406 297.5069 0112439  35.5157  25.1794 14.37356757881171"}}, "geometry": {"type": "Point", "coordinates": [-47.64664402825969, 43.00691553289804]}}, {"type": "Feature", "properties": {"norad_id": 33945, "name": "COSMOS 2251 DEB", "group": "cosmos-2251-debris", "lat": 44.2625235434662, "lon": 98.0568428374954, "alt_km": 778.8237301459903, "timestamp": "2025-12-19T06:59:44.299855+00:00", "meta": {"OBJECT_NAME": "COSMOS 2251 DEB", "OBJECT_ID": "1993-036FA", "EPOCH": "2025-12-18T22:00:34.459200", "MEAN_MOTION": 14.34605667, "ECCENTRICITY": 0.00221673, "INCLINATION": 74.0302, "RA_OF_ASC_NODE": 294.948, "ARG_OF_PERICENTER": 19.6213, "MEAN_ANOMALY": 340.5787, "EPHEMERIS_TYPE": 0, "CLASSIFICATION_TYPE": "U", "NORAD_CAT_ID": 33945, "ELEMENT_SET_NO": 999, "REV_AT_EPOCH": 88104, "BSTAR": 0.00010050362, "MEAN_MOTION_DOT": 2.59e-06, "MEAN_MOTION_DDOT": 0}, "tle": {"line1": "1 33945U 93036FA  25352.91706550  .00000259  00000+0  10050-3 0  9999", "line2": "2 33945  74.0302 294.9480 0022167  19.6213 340.5787 14.34605667881045"}}, "geometry": {"type": "Point", "coordinates": [98.0568428374954, 44.2625235434662]}}, {"type": "Feature", "properties": {"norad_id": 33948, "name": "COSMOS 2251 DEB", "group": "cosmos-2251-debris", "lat": 5.992303570952542, "lon": -65.16504352224221, "alt_km": 758.2994269746168, "timestamp": "2025-12-19T06:59:44.299865+00:00", "meta": {"OBJECT_NAME": "COSMOS 2251 DEB", "OBJECT_ID": "1993-036FD", "EPOCH": "2025-12-18T22:36:17.325216", "MEAN_MOTION": 14.35636425, "ECCENTRICITY": 0.00230003, "INCLINATION": 74.0359, "RA_OF_ASC_NODE": 293.7543, "ARG_OF_PERICENTER": 8.033, "MEAN_ANOMALY": 352.1186, "EPHEMERIS_TYPE": 0, "CLASSIFICATION_TYPE": "U", "NORAD_CAT_ID": 33948, "ELEMENT_SET_NO": 999, "REV_AT_EPOCH": 88112, "BSTAR": 0.00015379918, "MEAN_MOTION_DOT": 4.19e-06, "MEAN_MOTION_DDOT": 0}, "tle": {"line1": "1 33948U 93036FD  25352.94186719  .00000419  00000+0  15380-3 0  9993", "line2": "2 33948  74.0359 293.7543 0023000   8.0330 352.1186 14.35636425881124"}}, "geometry": {"type": "Point", "coordinates": [-65.16504352224221, 5.992303570952542]}}, {"type": "Feature", "properties": {"norad_id": 33971, "name": "COSMOS 2251 DEB", "group": "cosmos-2251-debris", "lat": 8.798282146043208, "lon": 59.083683212272405, "alt_km": 773.9801421244529, "timestamp": "2025-12-19T06:59:44.299875+00:00", "meta": {"OBJECT_NAME": "COSMOS 2251 DEB", "OBJECT_ID": "1993-036FE", "EPOCH": "2025-12-18T20:32:10.525632", "MEAN_MOTION": 14.39735669, "ECCENTRICITY": 0.00187804, "INCLINATION": 74.0245, "RA_OF_ASC_NODE": 242.4301, "ARG_OF_PERICENTER": 341.874, "MEAN_ANOMALY": 90.9939, "EPHEMERIS_TYPE": 0, "CLASSIFICATION_TYPE": "U", "NORAD_CAT_ID": 33971, "ELEMENT_SET_NO": 999, "REV_AT_EPOCH": 88227, "BSTAR": 0.00020345939, "MEAN_MOTION_DOT": 6.12e-06, "MEAN_MOTION_DDOT": 0}, "tle": {"line1": "1 33971U 93036FE  25352.85567738  .00000612  00000+0  20346-3 0  9996", "line2": "2 33971  74.0245 242.4301 0018780 341.8740  90.9939 14.39735669882273"}}, "geometry": {"type": "Point", "coordinates": [59.083683212272405, 8.798282146043208]}}, {"type": "Feature", "properties": {"norad_id": 33972, "name": "COSMOS 2251 DEB", "group": "cosmos-2251-debris", "lat": 26.386674934701887, "lon": -173.21394787812406, "alt_km": 704.1622889388209, "timestamp": "2025-12-19T06:59:44.299886+00:00", "meta": {"OBJECT_NAME": "COSMOS 2251 DEB", "OBJECT_ID": "1993-036FF", "EPOCH": "2025-12-17T23:49:01.144704", "MEAN_MOTION": 14.36260752, "ECCENTRICITY": 0.01235388, "INCLINATION": 73.9935, "RA_OF_ASC_NODE": 180.9905, "ARG_OF_PERICENTER": 347.5928, "MEAN_ANOMALY": 164.6661, "EPHEMERIS_TYPE": 0, "CLASSIFICATION_TYPE": "U", "NORAD_CAT_ID": 33972, "ELEMENT_SET_NO": 999, "REV_AT_EPOCH": 87149, "BSTAR": 0.0009239253, "MEAN_MOTION_DOT": 2.917e-05, "MEAN_MOTION_DDOT": 0}, "tle": {"line1": "1 33972U 93036FF  25351.99237436  .00002917  00000+0  92393-3 0  9991", "line2": "2 33972  73.9935 180.9905 0123538 347.5928 164.6661 14.36260752871499"}}, "geometry": {"type": "Point", "coordinates": [-173.21394787812406, 26.386674934701887]}}, {"type": "Feature", "properties": {"norad_id": 33973, "name": "COSMOS 2251 DEB", "group": "cosmos-2251-debris", "lat": -6.382465927010628, "lon": 88.82256288920702, "alt_km": 741.3998022189226, "timestamp": "2025-12-19T06:59:44.299896+00:00", "meta": {"OBJECT_NAME": "COSMOS 2251 DEB", "OBJECT_ID": "1993-036FG", "EPOCH": "2025-12-18T14:56:57.974208", "MEAN_MOTION": 14.4539705, "ECCENTRICITY": 0.00473892, "INCLINATION": 74.0087, "RA_OF_ASC_NODE": 91.9086, "ARG_OF_PERICENTER": 269.2619, "MEAN_ANOMALY": 206.1103, "EPHEMERIS_TYPE": 0, "CLASSIFICATION_TYPE": "U", "NORAD_CAT_ID": 33973, "ELEMENT_SET_NO": 999, "REV_AT_EPOCH": 88685, "BSTAR": 0.00011417305, "MEAN_MOTION_DOT": 3.79e-06, "MEAN_MOTION_DDOT": 0}, "tle": {"line1": "1 33973U 93036FG  25352.62289322  .00000379  00000+0  11417-3 0  9992", "line2": "2 33973  74.0087  91.9086 0047389 269.2619 206.1103 14.45397050886858"}}, "geometry": {"type": "Point", "coordinates": [88.82256288920702, -6.382465927010628]}}, {"type": "Feature", "properties": {"norad_id": 33975, "name": "COSMOS 2251 DEB", "group": "cosmos-2251-debris", "lat": -38.9827929044409, "lon": 59.33083923320397, "alt_km": 953.074125928727, "timestamp": "2025-12-19T06:59:44.299907+00:00", "meta": {"OBJECT_NAME": "COSMOS 2251 DEB", "OBJECT_ID": "1993-036FJ", "EPOCH": "2025-12-18T15:46:01.286112", "MEAN_MOTION": 14.00536538, "ECCENTRICITY": 0.0191139, "INCLINATION": 73.8018, "RA_OF_ASC_NODE": 74.0515, "ARG_OF_PERICENTER": 206.0376, "MEAN_ANOMALY": 153.1048, "EPHEMERIS_TYPE": 0, "CLASSIFICATION_TYPE": "U", "NORAD_CAT_ID": 33975, "ELEMENT_SET_NO": 999, "REV_AT_EPOCH": 85912, "BSTAR": 0.00041952274, "MEAN_MOTION_DOT": 7.04e-06, "MEAN_MOTION_DDOT": 0}, "tle": {"line1": "1 33975U 93036FJ  25352.65695933  .00000704  00000+0  41952-3 0  9995", "line2": "2 33975  73.8018  74.0515 0191139 206.0376 153.1048 14.00536538859128"}}, "geometry": {"type": "Point", "coordinates": [59.33083923320397, -38.9827929044409]}}]}